{
 "type": "FeatureCollection",
 "metadata": {
  "title": "Detected intra-island water polygons, Kitagi Island (summer scene)",
  "description": "Water polygons of at least 100 m2 detected inside Kitagi Island (Kasaoka City, Okayama Prefecture, Japan) from a single Sentinel-2 L2A scene.",
  "caution": "These are detected water polygons, not individually field-confirmed quarry ponds. Natural ponds, reservoirs, shadows and other false positives may remain, no strict coastline mask was applied so polygons near the shore may include seawater, and no accuracy metrics (precision/recall) have been computed.",
  "scene_id": "S2A_MSIL2A_20250802T015121_R017_T53SLU_20250802T044417",
  "imagery_date": "2025-08-02",
  "sensor": "Sentinel-2 L2A",
  "data_access": "Microsoft Planetary Computer STAC API",
  "water_condition": "(NDWI > -0.2 OR MNDWI > -0.1) AND NOT (NDVI > 0.3)",
  "analysis_grid_m": 10,
  "min_polygon_area_m2": 100,
  "feature_count": 145,
  "crs": "urn:ogc:def:crs:OGC::CRS84 (EPSG:4326, longitude/latitude order)",
  "attribution": "Contains modified Copernicus Sentinel data [2025].",
  "license": "CC BY 4.0",
  "author": "Noboru Otsuka (Geolonia Inc.)",
  "source_report": "docs/reports/exp002_kitagi_quarry_water_detection_report.md",
  "generator": "scripts/generate_exp002_poster_figures.py"
 },
 "features": [
  {
   "type": "Feature",
   "id": 1,
   "properties": {
    "id": 1,
    "area_m2": 7825.5
   },
   "geometry": {
    "type": "Polygon",
    "coordinates": [
     [
      [
       133.533486,
       34.391617
      ],
      [
       133.533486,
       34.391418
      ],
      [
       133.533188,
       34.391418
      ],
      [
       133.533188,
       34.391518
      ],
      [
       133.532989,
       34.391518
      ],
      [
       133.532989,
       34.391418
      ],
      [
       133.532791,
       34.391418
      ],
      [
       133.532791,
       34.391021
      ],
      [
       133.532691,
       34.391021
      ],
      [
       133.532691,
       34.390922
      ],
      [
       133.53289,
       34.390922
      ],
      [
       133.53289,
       34.390723
      ],
      [
       133.532989,
       34.390723
      ],
      [
       133.532989,
       34.390524
      ],
      [
       133.533089,
       34.390524
      ],
      [
       133.533089,
       34.390624
      ],
      [
       133.533188,
       34.390624
      ],
      [
       133.533188,
       34.390922
      ],
      [
       133.533287,
       34.390922
      ],
      [
       133.533287,
       34.391021
      ],
      [
       133.533386,
       34.391021
      ],
      [
       133.533386,
       34.390922
      ],
      [
       133.533684,
       34.390922
      ],
      [
       133.533684,
       34.390723
      ],
      [
       133.533784,
       34.390723
      ],
      [
       133.533784,
       34.390624
      ],
      [
       133.533883,
       34.390624
      ],
      [
       133.533883,
       34.391518
      ],
      [
       133.533784,
       34.391518
      ],
      [
       133.533784,
       34.391617
      ],
      [
       133.533486,
       34.391617
      ]
     ]
    ]
   }
  },
  {
   "type": "Feature",
   "id": 2,
   "properties": {
    "id": 2,
    "area_m2": 6521.3
   },
   "geometry": {
    "type": "Polygon",
    "coordinates": [
     [
      [
       133.541333,
       34.378903
      ],
      [
       133.541333,
       34.378804
      ],
      [
       133.541233,
       34.378804
      ],
      [
       133.541233,
       34.378705
      ],
      [
       133.541432,
       34.378705
      ],
      [
       133.541432,
       34.378506
      ],
      [
       133.541531,
       34.378506
      ],
      [
       133.541531,
       34.378407
      ],
      [
       133.54173,
       34.378407
      ],
      [
       133.54173,
       34.378307
      ],
      [
       133.541829,
       34.378307
      ],
      [
       133.541829,
       34.378208
      ],
      [
       133.541631,
       34.378208
      ],
      [
       133.541631,
       34.378109
      ],
      [
       133.54173,
       34.378109
      ],
      [
       133.54173,
       34.378009
      ],
      [
       133.541829,
       34.378009
      ],
      [
       133.541829,
       34.37791
      ],
      [
       133.542028,
       34.37791
      ],
      [
       133.542028,
       34.377711
      ],
      [
       133.542127,
       34.377711
      ],
      [
       133.542127,
       34.377811
      ],
      [
       133.542226,
       34.377811
      ],
      [
       133.542226,
       34.377513
      ],
      [
       133.542326,
       34.377513
      ],
      [
       133.542326,
       34.377612
      ],
      [
       133.542425,
       34.377612
      ],
      [
       133.542425,
       34.377413
      ],
      [
       133.542723,
       34.377413
      ],
      [
       133.542723,
       34.377513
      ],
      [
       133.542822,
       34.377513
      ],
      [
       133.542822,
       34.377413
      ],
      [
       133.54312,
       34.377413
      ],
      [
       133.54312,
       34.377612
      ],
      [
       133.542922,
       34.377612
      ],
      [
       133.542922,
       34.377711
      ],
      [
       133.542822,
       34.377711
      ],
      [
       133.542822,
       34.377612
      ],
      [
       133.542723,
       34.377612
      ],
      [
       133.542723,
       34.377811
      ],
      [
       133.542326,
       34.377811
      ],
      [
       133.542326,
       34.378009
      ],
      [
       133.542127,
       34.378009
      ],
      [
       133.542127,
       34.378109
      ],
      [
       133.542326,
       34.378109
      ],
      [
       133.542326,
       34.378208
      ],
      [
       133.542226,
       34.378208
      ],
      [
       133.542226,
       34.378307
      ],
      [
       133.542028,
       34.378307
      ],
      [
       133.542028,
       34.378407
      ],
      [
       133.541829,
       34.378407
      ],
      [
       133.541829,
       34.378506
      ],
      [
       133.54173,
       34.378506
      ],
      [
       133.54173,
       34.378705
      ],
      [
       133.541531,
       34.378705
      ],
      [
       133.541531,
       34.378804
      ],
      [
       133.541432,
       34.378804
      ],
      [
       133.541432,
       34.378903
      ],
      [
       133.541333,
       34.378903
      ]
     ]
    ]
   }
  },
  {
   "type": "Feature",
   "id": 3,
   "properties": {
    "id": 3,
    "area_m2": 4715.4
   },
   "geometry": {
    "type": "Polygon",
    "coordinates": [
     [
      [
       133.538055,
       34.392908
      ],
      [
       133.538055,
       34.392412
      ],
      [
       133.537955,
       34.392412
      ],
      [
       133.537955,
       34.392312
      ],
      [
       133.537856,
       34.392312
      ],
      [
       133.537856,
       34.392114
      ],
      [
       133.538253,
       34.392114
      ],
      [
       133.538253,
       34.391816
      ],
      [
       133.538452,
       34.391816
      ],
      [
       133.538452,
       34.391716
      ],
      [
       133.538551,
       34.391716
      ],
      [
       133.538551,
       34.391617
      ],
      [
       133.538849,
       34.391617
      ],
      [
       133.538849,
       34.391716
      ],
      [
       133.53875,
       34.391716
      ],
      [
       133.53875,
       34.391816
      ],
      [
       133.538551,
       34.391816
      ],
      [
       133.538551,
       34.392114
      ],
      [
       133.538452,
       34.392114
      ],
      [
       133.538452,
       34.392213
      ],
      [
       133.538551,
       34.392213
      ],
      [
       133.538551,
       34.392412
      ],
      [
       133.538353,
       34.392412
      ],
      [
       133.538353,
       34.392511
      ],
      [
       133.538253,
       34.392511
      ],
      [
       133.538253,
       34.39271
      ],
      [
       133.538353,
       34.39271
      ],
      [
       133.538353,
       34.392908
      ],
      [
       133.538055,
       34.392908
      ]
     ]
    ]
   }
  },
  {
   "type": "Feature",
   "id": 4,
   "properties": {
    "id": 4,
    "area_m2": 4715.4
   },
   "geometry": {
    "type": "Polygon",
    "coordinates": [
     [
      [
       133.531201,
       34.387942
      ],
      [
       133.531201,
       34.387843
      ],
      [
       133.531003,
       34.387843
      ],
      [
       133.531003,
       34.387644
      ],
      [
       133.530903,
       34.387644
      ],
      [
       133.530903,
       34.387247
      ],
      [
       133.531003,
       34.387247
      ],
      [
       133.531003,
       34.387048
      ],
      [
       133.531201,
       34.387048
      ],
      [
       133.531201,
       34.387147
      ],
      [
       133.5314,
       34.387147
      ],
      [
       133.5314,
       34.387048
      ],
      [
       133.531499,
       34.387048
      ],
      [
       133.531499,
       34.387247
      ],
      [
       133.531698,
       34.387247
      ],
      [
       133.531698,
       34.387445
      ],
      [
       133.531599,
       34.387445
      ],
      [
       133.531599,
       34.387545
      ],
      [
       133.531499,
       34.387545
      ],
      [
       133.531499,
       34.387644
      ],
      [
       133.5314,
       34.387644
      ],
      [
       133.5314,
       34.387942
      ],
      [
       133.531201,
       34.387942
      ]
     ]
    ]
   }
  },
  {
   "type": "Feature",
   "id": 5,
   "properties": {
    "id": 5,
    "area_m2": 4013.1
   },
   "geometry": {
    "type": "Polygon",
    "coordinates": [
     [
      [
       133.537757,
       34.393802
      ],
      [
       133.537757,
       34.393703
      ],
      [
       133.537657,
       34.393703
      ],
      [
       133.537657,
       34.393504
      ],
      [
       133.53736,
       34.393504
      ],
      [
       133.53736,
       34.393305
      ],
      [
       133.53726,
       34.393305
      ],
      [
       133.53726,
       34.393107
      ],
      [
       133.537459,
       34.393107
      ],
      [
       133.537459,
       34.39271
      ],
      [
       133.537558,
       34.39271
      ],
      [
       133.537558,
       34.392809
      ],
      [
       133.537657,
       34.392809
      ],
      [
       133.537657,
       34.392908
      ],
      [
       133.537757,
       34.392908
      ],
      [
       133.537757,
       34.393008
      ],
      [
       133.537856,
       34.393008
      ],
      [
       133.537856,
       34.393504
      ],
      [
       133.537955,
       34.393504
      ],
      [
       133.537955,
       34.393802
      ],
      [
       133.537757,
       34.393802
      ]
     ]
    ]
   }
  },
  {
   "type": "Feature",
   "id": 6,
   "properties": {
    "id": 6,
    "area_m2": 4013.1
   },
   "geometry": {
    "type": "Polygon",
    "coordinates": [
     [
      [
       133.531996,
       34.390624
      ],
      [
       133.531996,
       34.390326
      ],
      [
       133.532095,
       34.390326
      ],
      [
       133.532095,
       34.390226
      ],
      [
       133.531996,
       34.390226
      ],
      [
       133.531996,
       34.390127
      ],
      [
       133.531897,
       34.390127
      ],
      [
       133.531897,
       34.38963
      ],
      [
       133.531996,
       34.38963
      ],
      [
       133.531996,
       34.389531
      ],
      [
       133.532095,
       34.389531
      ],
      [
       133.532095,
       34.389829
      ],
      [
       133.532195,
       34.389829
      ],
      [
       133.532195,
       34.389928
      ],
      [
       133.532493,
       34.389928
      ],
      [
       133.532493,
       34.390028
      ],
      [
       133.532592,
       34.390028
      ],
      [
       133.532592,
       34.390425
      ],
      [
       133.532095,
       34.390425
      ],
      [
       133.532095,
       34.390624
      ],
      [
       133.531996,
       34.390624
      ]
     ]
    ]
   }
  },
  {
   "type": "Feature",
   "id": 7,
   "properties": {
    "id": 7,
    "area_m2": 3110.1
   },
   "geometry": {
    "type": "Polygon",
    "coordinates": [
     [
      [
       133.541631,
       34.376619
      ],
      [
       133.541631,
       34.376519
      ],
      [
       133.541531,
       34.376519
      ],
      [
       133.541531,
       34.37642
      ],
      [
       133.541432,
       34.37642
      ],
      [
       133.541432,
       34.376122
      ],
      [
       133.541333,
       34.376122
      ],
      [
       133.541333,
       34.376221
      ],
      [
       133.541134,
       34.376221
      ],
      [
       133.541134,
       34.376122
      ],
      [
       133.541233,
       34.376122
      ],
      [
       133.541233,
       34.376023
      ],
      [
       133.541432,
       34.376023
      ],
      [
       133.541432,
       34.375923
      ],
      [
       133.541531,
       34.375923
      ],
      [
       133.541531,
       34.376023
      ],
      [
       133.54173,
       34.376023
      ],
      [
       133.54173,
       34.375923
      ],
      [
       133.541829,
       34.375923
      ],
      [
       133.541829,
       34.376023
      ],
      [
       133.541929,
       34.376023
      ],
      [
       133.541929,
       34.375923
      ],
      [
       133.542028,
       34.375923
      ],
      [
       133.542028,
       34.376122
      ],
      [
       133.541829,
       34.376122
      ],
      [
       133.541829,
       34.376321
      ],
      [
       133.541929,
       34.376321
      ],
      [
       133.541929,
       34.376519
      ],
      [
       133.541829,
       34.376519
      ],
      [
       133.541829,
       34.376619
      ],
      [
       133.541631,
       34.376619
      ]
     ],
     [
      [
       133.541531,
       34.37642
      ],
      [
       133.541631,
       34.37642
      ],
      [
       133.541631,
       34.376321
      ],
      [
       133.541531,
       34.376321
      ],
      [
       133.541531,
       34.37642
      ]
     ]
    ]
   }
  },
  {
   "type": "Feature",
   "id": 8,
   "properties": {
    "id": 8,
    "area_m2": 2508.2
   },
   "geometry": {
    "type": "Polygon",
    "coordinates": [
     [
      [
       133.521467,
       34.390822
      ],
      [
       133.521467,
       34.390624
      ],
      [
       133.521368,
       34.390624
      ],
      [
       133.521368,
       34.390127
      ],
      [
       133.521567,
       34.390127
      ],
      [
       133.521567,
       34.390226
      ],
      [
       133.521865,
       34.390226
      ],
      [
       133.521865,
       34.390524
      ],
      [
       133.521765,
       34.390524
      ],
      [
       133.521765,
       34.390624
      ],
      [
       133.521666,
       34.390624
      ],
      [
       133.521666,
       34.390822
      ],
      [
       133.521467,
       34.390822
      ]
     ]
    ]
   }
  },
  {
   "type": "Feature",
   "id": 9,
   "properties": {
    "id": 9,
    "area_m2": 2006.5
   },
   "geometry": {
    "type": "Polygon",
    "coordinates": [
     [
      [
       133.536764,
       34.392908
      ],
      [
       133.536764,
       34.392511
      ],
      [
       133.536863,
       34.392511
      ],
      [
       133.536863,
       34.392412
      ],
      [
       133.536764,
       34.392412
      ],
      [
       133.536764,
       34.392213
      ],
      [
       133.536962,
       34.392213
      ],
      [
       133.536962,
       34.392312
      ],
      [
       133.537161,
       34.392312
      ],
      [
       133.537161,
       34.392511
      ],
      [
       133.537062,
       34.392511
      ],
      [
       133.537062,
       34.39261
      ],
      [
       133.537161,
       34.39261
      ],
      [
       133.537161,
       34.39271
      ],
      [
       133.536962,
       34.39271
      ],
      [
       133.536962,
       34.392908
      ],
      [
       133.536764,
       34.392908
      ]
     ]
    ]
   }
  },
  {
   "type": "Feature",
   "id": 10,
   "properties": {
    "id": 10,
    "area_m2": 1805.9
   },
   "geometry": {
    "type": "Polygon",
    "coordinates": [
     [
      [
       133.538055,
       34.391021
      ],
      [
       133.538055,
       34.390922
      ],
      [
       133.538253,
       34.390922
      ],
      [
       133.538253,
       34.390723
      ],
      [
       133.538055,
       34.390723
      ],
      [
       133.538055,
       34.390624
      ],
      [
       133.538154,
       34.390624
      ],
      [
       133.538154,
       34.390524
      ],
      [
       133.538353,
       34.390524
      ],
      [
       133.538353,
       34.390624
      ],
      [
       133.538651,
       34.390624
      ],
      [
       133.538651,
       34.390723
      ],
      [
       133.538452,
       34.390723
      ],
      [
       133.538452,
       34.390822
      ],
      [
       133.538551,
       34.390822
      ],
      [
       133.538551,
       34.391021
      ],
      [
       133.538055,
       34.391021
      ]
     ]
    ]
   }
  },
  {
   "type": "Feature",
   "id": 11,
   "properties": {
    "id": 11,
    "area_m2": 1304.3
   },
   "geometry": {
    "type": "Polygon",
    "coordinates": [
     [
      [
       133.527526,
       34.386551
      ],
      [
       133.527526,
       34.386353
      ],
      [
       133.527427,
       34.386353
      ],
      [
       133.527427,
       34.386253
      ],
      [
       133.527328,
       34.386253
      ],
      [
       133.527328,
       34.386154
      ],
      [
       133.527427,
       34.386154
      ],
      [
       133.527427,
       34.385955
      ],
      [
       133.527328,
       34.385955
      ],
      [
       133.527328,
       34.385856
      ],
      [
       133.527526,
       34.385856
      ],
      [
       133.527526,
       34.386154
      ],
      [
       133.527626,
       34.386154
      ],
      [
       133.527626,
       34.386353
      ],
      [
       133.527725,
       34.386353
      ],
      [
       133.527725,
       34.386551
      ],
      [
       133.527526,
       34.386551
      ]
     ]
    ]
   }
  },
  {
   "type": "Feature",
   "id": 12,
   "properties": {
    "id": 12,
    "area_m2": 1203.9
   },
   "geometry": {
    "type": "Polygon",
    "coordinates": [
     [
      [
       133.53289,
       34.387545
      ],
      [
       133.53289,
       34.387445
      ],
      [
       133.532791,
       34.387445
      ],
      [
       133.532791,
       34.387346
      ],
      [
       133.532989,
       34.387346
      ],
      [
       133.532989,
       34.387147
      ],
      [
       133.533089,
       34.387147
      ],
      [
       133.533089,
       34.387048
      ],
      [
       133.533188,
       34.387048
      ],
      [
       133.533188,
       34.387147
      ],
      [
       133.533287,
       34.387147
      ],
      [
       133.533287,
       34.387247
      ],
      [
       133.533188,
       34.387247
      ],
      [
       133.533188,
       34.387445
      ],
      [
       133.533089,
       34.387445
      ],
      [
       133.533089,
       34.387545
      ],
      [
       133.53289,
       34.387545
      ]
     ]
    ]
   }
  },
  {
   "type": "Feature",
   "id": 13,
   "properties": {
    "id": 13,
    "area_m2": 1103.6
   },
   "geometry": {
    "type": "Polygon",
    "coordinates": [
     [
      [
       133.543418,
       34.376221
      ],
      [
       133.543418,
       34.376122
      ],
      [
       133.543518,
       34.376122
      ],
      [
       133.543518,
       34.376023
      ],
      [
       133.543617,
       34.376023
      ],
      [
       133.543617,
       34.375923
      ],
      [
       133.543816,
       34.375923
      ],
      [
       133.543816,
       34.376023
      ],
      [
       133.544014,
       34.376023
      ],
      [
       133.544014,
       34.376122
      ],
      [
       133.543816,
       34.376122
      ],
      [
       133.543816,
       34.376221
      ],
      [
       133.543418,
       34.376221
      ]
     ]
    ]
   }
  },
  {
   "type": "Feature",
   "id": 14,
   "properties": {
    "id": 14,
    "area_m2": 1003.3
   },
   "geometry": {
    "type": "Polygon",
    "coordinates": [
     [
      [
       133.548881,
       34.392908
      ],
      [
       133.548881,
       34.392809
      ],
      [
       133.548683,
       34.392809
      ],
      [
       133.548683,
       34.392511
      ],
      [
       133.54908,
       34.392511
      ],
      [
       133.54908,
       34.39261
      ],
      [
       133.548881,
       34.39261
      ],
      [
       133.548881,
       34.39271
      ],
      [
       133.548981,
       34.39271
      ],
      [
       133.548981,
       34.392908
      ],
      [
       133.548881,
       34.392908
      ]
     ]
    ]
   }
  },
  {
   "type": "Feature",
   "id": 15,
   "properties": {
    "id": 15,
    "area_m2": 802.6
   },
   "geometry": {
    "type": "Polygon",
    "coordinates": [
     [
      [
       133.537955,
       34.391418
      ],
      [
       133.537955,
       34.391319
      ],
      [
       133.537757,
       34.391319
      ],
      [
       133.537757,
       34.39112
      ],
      [
       133.537955,
       34.39112
      ],
      [
       133.537955,
       34.39122
      ],
      [
       133.538154,
       34.39122
      ],
      [
       133.538154,
       34.391418
      ],
      [
       133.537955,
       34.391418
      ]
     ]
    ]
   }
  },
  {
   "type": "Feature",
   "id": 16,
   "properties": {
    "id": 16,
    "area_m2": 802.6
   },
   "geometry": {
    "type": "Polygon",
    "coordinates": [
     [
      [
       133.544213,
       34.375328
      ],
      [
       133.544213,
       34.375228
      ],
      [
       133.544114,
       34.375228
      ],
      [
       133.544114,
       34.375129
      ],
      [
       133.544014,
       34.375129
      ],
      [
       133.544014,
       34.37503
      ],
      [
       133.544213,
       34.37503
      ],
      [
       133.544213,
       34.374831
      ],
      [
       133.544312,
       34.374831
      ],
      [
       133.544312,
       34.375328
      ],
      [
       133.544213,
       34.375328
      ]
     ]
    ]
   }
  },
  {
   "type": "Feature",
   "id": 17,
   "properties": {
    "id": 17,
    "area_m2": 702.3
   },
   "geometry": {
    "type": "Polygon",
    "coordinates": [
     [
      [
       133.532989,
       34.390226
      ],
      [
       133.532989,
       34.390028
      ],
      [
       133.533188,
       34.390028
      ],
      [
       133.533188,
       34.389829
      ],
      [
       133.533287,
       34.389829
      ],
      [
       133.533287,
       34.390127
      ],
      [
       133.533188,
       34.390127
      ],
      [
       133.533188,
       34.390226
      ],
      [
       133.532989,
       34.390226
      ]
     ]
    ]
   }
  },
  {
   "type": "Feature",
   "id": 18,
   "properties": {
    "id": 18,
    "area_m2": 702.3
   },
   "geometry": {
    "type": "Polygon",
    "coordinates": [
     [
      [
       133.547391,
       34.386551
      ],
      [
       133.547391,
       34.386452
      ],
      [
       133.547689,
       34.386452
      ],
      [
       133.547689,
       34.386353
      ],
      [
       133.547789,
       34.386353
      ],
      [
       133.547789,
       34.386253
      ],
      [
       133.547888,
       34.386253
      ],
      [
       133.547888,
       34.386452
      ],
      [
       133.547789,
       34.386452
      ],
      [
       133.547789,
       34.386551
      ],
      [
       133.547391,
       34.386551
      ]
     ]
    ]
   }
  },
  {
   "type": "Feature",
   "id": 19,
   "properties": {
    "id": 19,
    "area_m2": 702.3
   },
   "geometry": {
    "type": "Polygon",
    "coordinates": [
     [
      [
       133.540439,
       34.397477
      ],
      [
       133.540439,
       34.397378
      ],
      [
       133.540538,
       34.397378
      ],
      [
       133.540538,
       34.397179
      ],
      [
       133.540637,
       34.397179
      ],
      [
       133.540637,
       34.39708
      ],
      [
       133.540737,
       34.39708
      ],
      [
       133.540737,
       34.397378
      ],
      [
       133.540637,
       34.397378
      ],
      [
       133.540637,
       34.397477
      ],
      [
       133.540439,
       34.397477
      ]
     ]
    ]
   }
  },
  {
   "type": "Feature",
   "id": 20,
   "properties": {
    "id": 20,
    "area_m2": 702.3
   },
   "geometry": {
    "type": "Polygon",
    "coordinates": [
     [
      [
       133.537955,
       34.396881
      ],
      [
       133.537955,
       34.396782
      ],
      [
       133.537856,
       34.396782
      ],
      [
       133.537856,
       34.396683
      ],
      [
       133.538253,
       34.396683
      ],
      [
       133.538253,
       34.396881
      ],
      [
       133.537955,
       34.396881
      ]
     ]
    ]
   }
  },
  {
   "type": "Feature",
   "id": 21,
   "properties": {
    "id": 21,
    "area_m2": 702.3
   },
   "geometry": {
    "type": "Polygon",
    "coordinates": [
     [
      [
       133.549676,
       34.391915
      ],
      [
       133.549676,
       34.391617
      ],
      [
       133.549775,
       34.391617
      ],
      [
       133.549775,
       34.391518
      ],
      [
       133.549875,
       34.391518
      ],
      [
       133.549875,
       34.391915
      ],
      [
       133.549676,
       34.391915
      ]
     ]
    ]
   }
  },
  {
   "type": "Feature",
   "id": 22,
   "properties": {
    "id": 22,
    "area_m2": 702.3
   },
   "geometry": {
    "type": "Polygon",
    "coordinates": [
     [
      [
       133.532393,
       34.391915
      ],
      [
       133.532393,
       34.391816
      ],
      [
       133.532294,
       34.391816
      ],
      [
       133.532294,
       34.391617
      ],
      [
       133.532691,
       34.391617
      ],
      [
       133.532691,
       34.391716
      ],
      [
       133.532493,
       34.391716
      ],
      [
       133.532493,
       34.391915
      ],
      [
       133.532393,
       34.391915
      ]
     ]
    ]
   }
  },
  {
   "type": "Feature",
   "id": 23,
   "properties": {
    "id": 23,
    "area_m2": 702.3
   },
   "geometry": {
    "type": "Polygon",
    "coordinates": [
     [
      [
       133.533089,
       34.389332
      ],
      [
       133.533089,
       34.389034
      ],
      [
       133.533188,
       34.389034
      ],
      [
       133.533188,
       34.389134
      ],
      [
       133.533386,
       34.389134
      ],
      [
       133.533386,
       34.389332
      ],
      [
       133.533089,
       34.389332
      ]
     ]
    ]
   }
  },
  {
   "type": "Feature",
   "id": 24,
   "properties": {
    "id": 24,
    "area_m2": 602.0
   },
   "geometry": {
    "type": "Polygon",
    "coordinates": [
     [
      [
       133.51968,
       34.396484
      ],
      [
       133.51968,
       34.396385
      ],
      [
       133.519481,
       34.396385
      ],
      [
       133.519481,
       34.396285
      ],
      [
       133.519878,
       34.396285
      ],
      [
       133.519878,
       34.396484
      ],
      [
       133.51968,
       34.396484
      ]
     ]
    ]
   }
  },
  {
   "type": "Feature",
   "id": 25,
   "properties": {
    "id": 25,
    "area_m2": 602.0
   },
   "geometry": {
    "type": "Polygon",
    "coordinates": [
     [
      [
       133.54908,
       34.392412
      ],
      [
       133.54908,
       34.392114
      ],
      [
       133.549179,
       34.392114
      ],
      [
       133.549179,
       34.392213
      ],
      [
       133.549378,
       34.392213
      ],
      [
       133.549378,
       34.392312
      ],
      [
       133.549279,
       34.392312
      ],
      [
       133.549279,
       34.392412
      ],
      [
       133.54908,
       34.392412
      ]
     ]
    ]
   }
  },
  {
   "type": "Feature",
   "id": 26,
   "properties": {
    "id": 26,
    "area_m2": 602.0
   },
   "geometry": {
    "type": "Polygon",
    "coordinates": [
     [
      [
       133.526831,
       34.385657
      ],
      [
       133.526831,
       34.385558
      ],
      [
       133.52693,
       34.385558
      ],
      [
       133.52693,
       34.38526
      ],
      [
       133.527129,
       34.38526
      ],
      [
       133.527129,
       34.385359
      ],
      [
       133.52703,
       34.385359
      ],
      [
       133.52703,
       34.385657
      ],
      [
       133.526831,
       34.385657
      ]
     ]
    ]
   }
  },
  {
   "type": "Feature",
   "id": 27,
   "properties": {
    "id": 27,
    "area_m2": 602.0
   },
   "geometry": {
    "type": "Polygon",
    "coordinates": [
     [
      [
       133.54312,
       34.379201
      ],
      [
       133.54312,
       34.379102
      ],
      [
       133.543021,
       34.379102
      ],
      [
       133.543021,
       34.378903
      ],
      [
       133.54312,
       34.378903
      ],
      [
       133.54312,
       34.378804
      ],
      [
       133.54322,
       34.378804
      ],
      [
       133.54322,
       34.379201
      ],
      [
       133.54312,
       34.379201
      ]
     ]
    ]
   }
  },
  {
   "type": "Feature",
   "id": 28,
   "properties": {
    "id": 28,
    "area_m2": 501.6
   },
   "geometry": {
    "type": "Polygon",
    "coordinates": [
     [
      [
       133.532791,
       34.392114
      ],
      [
       133.532791,
       34.392014
      ],
      [
       133.532691,
       34.392014
      ],
      [
       133.532691,
       34.391816
      ],
      [
       133.53289,
       34.391816
      ],
      [
       133.53289,
       34.392114
      ],
      [
       133.532791,
       34.392114
      ]
     ]
    ]
   }
  },
  {
   "type": "Feature",
   "id": 29,
   "properties": {
    "id": 29,
    "area_m2": 501.6
   },
   "geometry": {
    "type": "Polygon",
    "coordinates": [
     [
      [
       133.543915,
       34.380393
      ],
      [
       133.543915,
       34.380194
      ],
      [
       133.544014,
       34.380194
      ],
      [
       133.544014,
       34.380294
      ],
      [
       133.544312,
       34.380294
      ],
      [
       133.544312,
       34.380393
      ],
      [
       133.543915,
       34.380393
      ]
     ]
    ]
   }
  },
  {
   "type": "Feature",
   "id": 30,
   "properties": {
    "id": 30,
    "area_m2": 501.6
   },
   "geometry": {
    "type": "Polygon",
    "coordinates": [
     [
      [
       133.554245,
       34.374632
      ],
      [
       133.554245,
       34.374533
      ],
      [
       133.554146,
       34.374533
      ],
      [
       133.554146,
       34.374434
      ],
      [
       133.554344,
       34.374434
      ],
      [
       133.554344,
       34.374334
      ],
      [
       133.554444,
       34.374334
      ],
      [
       133.554444,
       34.374533
      ],
      [
       133.554344,
       34.374533
      ],
      [
       133.554344,
       34.374632
      ],
      [
       133.554245,
       34.374632
      ]
     ]
    ]
   }
  },
  {
   "type": "Feature",
   "id": 31,
   "properties": {
    "id": 31,
    "area_m2": 501.6
   },
   "geometry": {
    "type": "Polygon",
    "coordinates": [
     [
      [
       133.536863,
       34.392114
      ],
      [
       133.536863,
       34.391816
      ],
      [
       133.537062,
       34.391816
      ],
      [
       133.537062,
       34.392014
      ],
      [
       133.536962,
       34.392014
      ],
      [
       133.536962,
       34.392114
      ],
      [
       133.536863,
       34.392114
      ]
     ]
    ]
   }
  },
  {
   "type": "Feature",
   "id": 32,
   "properties": {
    "id": 32,
    "area_m2": 501.6
   },
   "geometry": {
    "type": "Polygon",
    "coordinates": [
     [
      [
       133.526533,
       34.384267
      ],
      [
       133.526533,
       34.384168
      ],
      [
       133.52703,
       34.384168
      ],
      [
       133.52703,
       34.384267
      ],
      [
       133.526533,
       34.384267
      ]
     ]
    ]
   }
  },
  {
   "type": "Feature",
   "id": 33,
   "properties": {
    "id": 33,
    "area_m2": 501.6
   },
   "geometry": {
    "type": "Polygon",
    "coordinates": [
     [
      [
       133.520077,
       34.387644
      ],
      [
       133.520077,
       34.387247
      ],
      [
       133.520176,
       34.387247
      ],
      [
       133.520176,
       34.387346
      ],
      [
       133.520275,
       34.387346
      ],
      [
       133.520275,
       34.387445
      ],
      [
       133.520176,
       34.387445
      ],
      [
       133.520176,
       34.387644
      ],
      [
       133.520077,
       34.387644
      ]
     ]
    ]
   }
  },
  {
   "type": "Feature",
   "id": 34,
   "properties": {
    "id": 34,
    "area_m2": 401.3
   },
   "geometry": {
    "type": "Polygon",
    "coordinates": [
     [
      [
       133.526434,
       34.385558
      ],
      [
       133.526434,
       34.385459
      ],
      [
       133.526334,
       34.385459
      ],
      [
       133.526334,
       34.38526
      ],
      [
       133.526434,
       34.38526
      ],
      [
       133.526434,
       34.385359
      ],
      [
       133.526533,
       34.385359
      ],
      [
       133.526533,
       34.385558
      ],
      [
       133.526434,
       34.385558
      ]
     ]
    ]
   }
  },
  {
   "type": "Feature",
   "id": 35,
   "properties": {
    "id": 35,
    "area_m2": 401.3
   },
   "geometry": {
    "type": "Polygon",
    "coordinates": [
     [
      [
       133.530705,
       34.388538
      ],
      [
       133.530705,
       34.388439
      ],
      [
       133.530903,
       34.388439
      ],
      [
       133.530903,
       34.388339
      ],
      [
       133.531003,
       34.388339
      ],
      [
       133.531003,
       34.388538
      ],
      [
       133.530705,
       34.388538
      ]
     ]
    ]
   }
  },
  {
   "type": "Feature",
   "id": 36,
   "properties": {
    "id": 36,
    "area_m2": 401.3
   },
   "geometry": {
    "type": "Polygon",
    "coordinates": [
     [
      [
       133.518587,
       34.399861
      ],
      [
       133.518587,
       34.399762
      ],
      [
       133.518686,
       34.399762
      ],
      [
       133.518686,
       34.399662
      ],
      [
       133.518786,
       34.399662
      ],
      [
       133.518786,
       34.399762
      ],
      [
       133.518885,
       34.399762
      ],
      [
       133.518885,
       34.399861
      ],
      [
       133.518587,
       34.399861
      ]
     ]
    ]
   }
  },
  {
   "type": "Feature",
   "id": 37,
   "properties": {
    "id": 37,
    "area_m2": 401.3
   },
   "geometry": {
    "type": "Polygon",
    "coordinates": [
     [
      [
       133.544312,
       34.386154
      ],
      [
       133.544312,
       34.385955
      ],
      [
       133.54461,
       34.385955
      ],
      [
       133.54461,
       34.386055
      ],
      [
       133.544412,
       34.386055
      ],
      [
       133.544412,
       34.386154
      ],
      [
       133.544312,
       34.386154
      ]
     ]
    ]
   }
  },
  {
   "type": "Feature",
   "id": 38,
   "properties": {
    "id": 38,
    "area_m2": 401.3
   },
   "geometry": {
    "type": "Polygon",
    "coordinates": [
     [
      [
       133.518488,
       34.399563
      ],
      [
       133.518488,
       34.399464
      ],
      [
       133.518686,
       34.399464
      ],
      [
       133.518686,
       34.399364
      ],
      [
       133.518786,
       34.399364
      ],
      [
       133.518786,
       34.399563
      ],
      [
       133.518488,
       34.399563
      ]
     ]
    ]
   }
  },
  {
   "type": "Feature",
   "id": 39,
   "properties": {
    "id": 39,
    "area_m2": 401.3
   },
   "geometry": {
    "type": "Polygon",
    "coordinates": [
     [
      [
       133.525242,
       34.387644
      ],
      [
       133.525242,
       34.387545
      ],
      [
       133.525043,
       34.387545
      ],
      [
       133.525043,
       34.387445
      ],
      [
       133.525341,
       34.387445
      ],
      [
       133.525341,
       34.387644
      ],
      [
       133.525242,
       34.387644
      ]
     ]
    ]
   }
  },
  {
   "type": "Feature",
   "id": 40,
   "properties": {
    "id": 40,
    "area_m2": 401.3
   },
   "geometry": {
    "type": "Polygon",
    "coordinates": [
     [
      [
       133.537062,
       34.385359
      ],
      [
       133.537062,
       34.38526
      ],
      [
       133.53726,
       34.38526
      ],
      [
       133.53726,
       34.385161
      ],
      [
       133.53736,
       34.385161
      ],
      [
       133.53736,
       34.385359
      ],
      [
       133.537062,
       34.385359
      ]
     ]
    ]
   }
  },
  {
   "type": "Feature",
   "id": 41,
   "properties": {
    "id": 41,
    "area_m2": 401.3
   },
   "geometry": {
    "type": "Polygon",
    "coordinates": [
     [
      [
       133.538154,
       34.391716
      ],
      [
       133.538154,
       34.391518
      ],
      [
       133.538353,
       34.391518
      ],
      [
       133.538353,
       34.391716
      ],
      [
       133.538154,
       34.391716
      ]
     ]
    ]
   }
  },
  {
   "type": "Feature",
   "id": 42,
   "properties": {
    "id": 42,
    "area_m2": 401.3
   },
   "geometry": {
    "type": "Polygon",
    "coordinates": [
     [
      [
       133.526136,
       34.387346
      ],
      [
       133.526136,
       34.387147
      ],
      [
       133.526334,
       34.387147
      ],
      [
       133.526334,
       34.387346
      ],
      [
       133.526136,
       34.387346
      ]
     ]
    ]
   }
  },
  {
   "type": "Feature",
   "id": 43,
   "properties": {
    "id": 43,
    "area_m2": 401.3
   },
   "geometry": {
    "type": "Polygon",
    "coordinates": [
     [
      [
       133.548087,
       34.374632
      ],
      [
       133.548087,
       34.374434
      ],
      [
       133.548285,
       34.374434
      ],
      [
       133.548285,
       34.374632
      ],
      [
       133.548087,
       34.374632
      ]
     ]
    ]
   }
  },
  {
   "type": "Feature",
   "id": 44,
   "properties": {
    "id": 44,
    "area_m2": 401.3
   },
   "geometry": {
    "type": "Polygon",
    "coordinates": [
     [
      [
       133.537161,
       34.392312
      ],
      [
       133.537161,
       34.392114
      ],
      [
       133.53736,
       34.392114
      ],
      [
       133.53736,
       34.392312
      ],
      [
       133.537161,
       34.392312
      ]
     ]
    ]
   }
  },
  {
   "type": "Feature",
   "id": 45,
   "properties": {
    "id": 45,
    "area_m2": 401.3
   },
   "geometry": {
    "type": "Polygon",
    "coordinates": [
     [
      [
       133.535075,
       34.391617
      ],
      [
       133.535075,
       34.391518
      ],
      [
       133.535174,
       34.391518
      ],
      [
       133.535174,
       34.391319
      ],
      [
       133.535274,
       34.391319
      ],
      [
       133.535274,
       34.391617
      ],
      [
       133.535075,
       34.391617
      ]
     ]
    ]
   }
  },
  {
   "type": "Feature",
   "id": 46,
   "properties": {
    "id": 46,
    "area_m2": 401.3
   },
   "geometry": {
    "type": "Polygon",
    "coordinates": [
     [
      [
       133.54312,
       34.377115
      ],
      [
       133.54312,
       34.376817
      ],
      [
       133.543319,
       34.376817
      ],
      [
       133.543319,
       34.376917
      ],
      [
       133.54322,
       34.376917
      ],
      [
       133.54322,
       34.377115
      ],
      [
       133.54312,
       34.377115
      ]
     ]
    ]
   }
  },
  {
   "type": "Feature",
   "id": 47,
   "properties": {
    "id": 47,
    "area_m2": 401.3
   },
   "geometry": {
    "type": "Polygon",
    "coordinates": [
     [
      [
       133.54173,
       34.375725
      ],
      [
       133.54173,
       34.375427
      ],
      [
       133.541829,
       34.375427
      ],
      [
       133.541829,
       34.375625
      ],
      [
       133.541929,
       34.375625
      ],
      [
       133.541929,
       34.375725
      ],
      [
       133.54173,
       34.375725
      ]
     ]
    ]
   }
  },
  {
   "type": "Feature",
   "id": 48,
   "properties": {
    "id": 48,
    "area_m2": 401.3
   },
   "geometry": {
    "type": "Polygon",
    "coordinates": [
     [
      [
       133.529711,
       34.387644
      ],
      [
       133.529711,
       34.387346
      ],
      [
       133.529811,
       34.387346
      ],
      [
       133.529811,
       34.387545
      ],
      [
       133.52991,
       34.387545
      ],
      [
       133.52991,
       34.387644
      ],
      [
       133.529711,
       34.387644
      ]
     ]
    ]
   }
  },
  {
   "type": "Feature",
   "id": 49,
   "properties": {
    "id": 49,
    "area_m2": 401.3
   },
   "geometry": {
    "type": "Polygon",
    "coordinates": [
     [
      [
       133.532195,
       34.385359
      ],
      [
       133.532195,
       34.38526
      ],
      [
       133.532095,
       34.38526
      ],
      [
       133.532095,
       34.385161
      ],
      [
       133.532195,
       34.385161
      ],
      [
       133.532195,
       34.385061
      ],
      [
       133.532294,
       34.385061
      ],
      [
       133.532294,
       34.385359
      ],
      [
       133.532195,
       34.385359
      ]
     ]
    ]
   }
  },
  {
   "type": "Feature",
   "id": 50,
   "properties": {
    "id": 50,
    "area_m2": 301.0
   },
   "geometry": {
    "type": "Polygon",
    "coordinates": [
     [
      [
       133.534181,
       34.38963
      ],
      [
       133.534181,
       34.389531
      ],
      [
       133.534082,
       34.389531
      ],
      [
       133.534082,
       34.389432
      ],
      [
       133.53428,
       34.389432
      ],
      [
       133.53428,
       34.38963
      ],
      [
       133.534181,
       34.38963
      ]
     ]
    ]
   }
  },
  {
   "type": "Feature",
   "id": 51,
   "properties": {
    "id": 51,
    "area_m2": 301.0
   },
   "geometry": {
    "type": "Polygon",
    "coordinates": [
     [
      [
       133.530208,
       34.387644
      ],
      [
       133.530208,
       34.387445
      ],
      [
       133.530407,
       34.387445
      ],
      [
       133.530407,
       34.387545
      ],
      [
       133.530307,
       34.387545
      ],
      [
       133.530307,
       34.387644
      ],
      [
       133.530208,
       34.387644
      ]
     ]
    ]
   }
  },
  {
   "type": "Feature",
   "id": 52,
   "properties": {
    "id": 52,
    "area_m2": 301.0
   },
   "geometry": {
    "type": "Polygon",
    "coordinates": [
     [
      [
       133.558218,
       34.37642
      ],
      [
       133.558218,
       34.376122
      ],
      [
       133.558317,
       34.376122
      ],
      [
       133.558317,
       34.37642
      ],
      [
       133.558218,
       34.37642
      ]
     ]
    ]
   }
  },
  {
   "type": "Feature",
   "id": 53,
   "properties": {
    "id": 53,
    "area_m2": 301.0
   },
   "geometry": {
    "type": "Polygon",
    "coordinates": [
     [
      [
       133.551265,
       34.376023
      ],
      [
       133.551265,
       34.375923
      ],
      [
       133.551166,
       34.375923
      ],
      [
       133.551166,
       34.375824
      ],
      [
       133.551364,
       34.375824
      ],
      [
       133.551364,
       34.376023
      ],
      [
       133.551265,
       34.376023
      ]
     ]
    ]
   }
  },
  {
   "type": "Feature",
   "id": 54,
   "properties": {
    "id": 54,
    "area_m2": 301.0
   },
   "geometry": {
    "type": "Polygon",
    "coordinates": [
     [
      [
       133.542822,
       34.375625
      ],
      [
       133.542822,
       34.375526
      ],
      [
       133.542723,
       34.375526
      ],
      [
       133.542723,
       34.375427
      ],
      [
       133.542922,
       34.375427
      ],
      [
       133.542922,
       34.375625
      ],
      [
       133.542822,
       34.375625
      ]
     ]
    ]
   }
  },
  {
   "type": "Feature",
   "id": 55,
   "properties": {
    "id": 55,
    "area_m2": 301.0
   },
   "geometry": {
    "type": "Polygon",
    "coordinates": [
     [
      [
       133.536664,
       34.393107
      ],
      [
       133.536664,
       34.392908
      ],
      [
       133.536764,
       34.392908
      ],
      [
       133.536764,
       34.393008
      ],
      [
       133.536863,
       34.393008
      ],
      [
       133.536863,
       34.393107
      ],
      [
       133.536664,
       34.393107
      ]
     ]
    ]
   }
  },
  {
   "type": "Feature",
   "id": 56,
   "properties": {
    "id": 56,
    "area_m2": 301.0
   },
   "geometry": {
    "type": "Polygon",
    "coordinates": [
     [
      [
       133.548484,
       34.393206
      ],
      [
       133.548484,
       34.393008
      ],
      [
       133.548683,
       34.393008
      ],
      [
       133.548683,
       34.393107
      ],
      [
       133.548583,
       34.393107
      ],
      [
       133.548583,
       34.393206
      ],
      [
       133.548484,
       34.393206
      ]
     ]
    ]
   }
  },
  {
   "type": "Feature",
   "id": 57,
   "properties": {
    "id": 57,
    "area_m2": 301.0
   },
   "geometry": {
    "type": "Polygon",
    "coordinates": [
     [
      [
       133.537856,
       34.396583
      ],
      [
       133.537856,
       34.396484
      ],
      [
       133.538154,
       34.396484
      ],
      [
       133.538154,
       34.396583
      ],
      [
       133.537856,
       34.396583
      ]
     ]
    ]
   }
  },
  {
   "type": "Feature",
   "id": 58,
   "properties": {
    "id": 58,
    "area_m2": 301.0
   },
   "geometry": {
    "type": "Polygon",
    "coordinates": [
     [
      [
       133.526831,
       34.384863
      ],
      [
       133.526831,
       34.384664
      ],
      [
       133.52693,
       34.384664
      ],
      [
       133.52693,
       34.384763
      ],
      [
       133.52703,
       34.384763
      ],
      [
       133.52703,
       34.384863
      ],
      [
       133.526831,
       34.384863
      ]
     ]
    ]
   }
  },
  {
   "type": "Feature",
   "id": 59,
   "properties": {
    "id": 59,
    "area_m2": 301.0
   },
   "geometry": {
    "type": "Polygon",
    "coordinates": [
     [
      [
       133.54461,
       34.375427
      ],
      [
       133.54461,
       34.375328
      ],
      [
       133.544908,
       34.375328
      ],
      [
       133.544908,
       34.375427
      ],
      [
       133.54461,
       34.375427
      ]
     ]
    ]
   }
  },
  {
   "type": "Feature",
   "id": 60,
   "properties": {
    "id": 60,
    "area_m2": 301.0
   },
   "geometry": {
    "type": "Polygon",
    "coordinates": [
     [
      [
       133.552656,
       34.392511
      ],
      [
       133.552656,
       34.392412
      ],
      [
       133.552556,
       34.392412
      ],
      [
       133.552556,
       34.392312
      ],
      [
       133.552755,
       34.392312
      ],
      [
       133.552755,
       34.392511
      ],
      [
       133.552656,
       34.392511
      ]
     ]
    ]
   }
  },
  {
   "type": "Feature",
   "id": 61,
   "properties": {
    "id": 61,
    "area_m2": 301.0
   },
   "geometry": {
    "type": "Polygon",
    "coordinates": [
     [
      [
       133.541531,
       34.375824
      ],
      [
       133.541531,
       34.375625
      ],
      [
       133.541631,
       34.375625
      ],
      [
       133.541631,
       34.375725
      ],
      [
       133.54173,
       34.375725
      ],
      [
       133.54173,
       34.375824
      ],
      [
       133.541531,
       34.375824
      ]
     ]
    ]
   }
  },
  {
   "type": "Feature",
   "id": 62,
   "properties": {
    "id": 62,
    "area_m2": 200.7
   },
   "geometry": {
    "type": "Polygon",
    "coordinates": [
     [
      [
       133.545008,
       34.375328
      ],
      [
       133.545008,
       34.375228
      ],
      [
       133.545206,
       34.375228
      ],
      [
       133.545206,
       34.375328
      ],
      [
       133.545008,
       34.375328
      ]
     ]
    ]
   }
  },
  {
   "type": "Feature",
   "id": 63,
   "properties": {
    "id": 63,
    "area_m2": 200.7
   },
   "geometry": {
    "type": "Polygon",
    "coordinates": [
     [
      [
       133.520176,
       34.389034
      ],
      [
       133.520176,
       34.388836
      ],
      [
       133.520275,
       34.388836
      ],
      [
       133.520275,
       34.389034
      ],
      [
       133.520176,
       34.389034
      ]
     ]
    ]
   }
  },
  {
   "type": "Feature",
   "id": 64,
   "properties": {
    "id": 64,
    "area_m2": 200.7
   },
   "geometry": {
    "type": "Polygon",
    "coordinates": [
     [
      [
       133.538651,
       34.389034
      ],
      [
       133.538651,
       34.388836
      ],
      [
       133.53875,
       34.388836
      ],
      [
       133.53875,
       34.389034
      ],
      [
       133.538651,
       34.389034
      ]
     ]
    ]
   }
  },
  {
   "type": "Feature",
   "id": 65,
   "properties": {
    "id": 65,
    "area_m2": 200.7
   },
   "geometry": {
    "type": "Polygon",
    "coordinates": [
     [
      [
       133.542127,
       34.378804
      ],
      [
       133.542127,
       34.378605
      ],
      [
       133.542226,
       34.378605
      ],
      [
       133.542226,
       34.378804
      ],
      [
       133.542127,
       34.378804
      ]
     ]
    ]
   }
  },
  {
   "type": "Feature",
   "id": 66,
   "properties": {
    "id": 66,
    "area_m2": 200.7
   },
   "geometry": {
    "type": "Polygon",
    "coordinates": [
     [
      [
       133.547987,
       34.37503
      ],
      [
       133.547987,
       34.374831
      ],
      [
       133.548087,
       34.374831
      ],
      [
       133.548087,
       34.37503
      ],
      [
       133.547987,
       34.37503
      ]
     ]
    ]
   }
  },
  {
   "type": "Feature",
   "id": 67,
   "properties": {
    "id": 67,
    "area_m2": 200.7
   },
   "geometry": {
    "type": "Polygon",
    "coordinates": [
     [
      [
       133.522957,
       34.390326
      ],
      [
       133.522957,
       34.390127
      ],
      [
       133.523057,
       34.390127
      ],
      [
       133.523057,
       34.390326
      ],
      [
       133.522957,
       34.390326
      ]
     ]
    ]
   }
  },
  {
   "type": "Feature",
   "id": 68,
   "properties": {
    "id": 68,
    "area_m2": 200.7
   },
   "geometry": {
    "type": "Polygon",
    "coordinates": [
     [
      [
       133.524745,
       34.388041
      ],
      [
       133.524745,
       34.387843
      ],
      [
       133.524844,
       34.387843
      ],
      [
       133.524844,
       34.388041
      ],
      [
       133.524745,
       34.388041
      ]
     ]
    ]
   }
  },
  {
   "type": "Feature",
   "id": 69,
   "properties": {
    "id": 69,
    "area_m2": 200.7
   },
   "geometry": {
    "type": "Polygon",
    "coordinates": [
     [
      [
       133.526334,
       34.384565
      ],
      [
       133.526334,
       34.384366
      ],
      [
       133.526434,
       34.384366
      ],
      [
       133.526434,
       34.384565
      ],
      [
       133.526334,
       34.384565
      ]
     ]
    ]
   }
  },
  {
   "type": "Feature",
   "id": 70,
   "properties": {
    "id": 70,
    "area_m2": 200.7
   },
   "geometry": {
    "type": "Polygon",
    "coordinates": [
     [
      [
       133.542723,
       34.377215
      ],
      [
       133.542723,
       34.377115
      ],
      [
       133.542922,
       34.377115
      ],
      [
       133.542922,
       34.377215
      ],
      [
       133.542723,
       34.377215
      ]
     ]
    ]
   }
  },
  {
   "type": "Feature",
   "id": 71,
   "properties": {
    "id": 71,
    "area_m2": 200.7
   },
   "geometry": {
    "type": "Polygon",
    "coordinates": [
     [
      [
       133.541829,
       34.377115
      ],
      [
       133.541829,
       34.376917
      ],
      [
       133.541929,
       34.376917
      ],
      [
       133.541929,
       34.377115
      ],
      [
       133.541829,
       34.377115
      ]
     ]
    ]
   }
  },
  {
   "type": "Feature",
   "id": 72,
   "properties": {
    "id": 72,
    "area_m2": 200.7
   },
   "geometry": {
    "type": "Polygon",
    "coordinates": [
     [
      [
       133.546398,
       34.376718
      ],
      [
       133.546398,
       34.376519
      ],
      [
       133.546497,
       34.376519
      ],
      [
       133.546497,
       34.376718
      ],
      [
       133.546398,
       34.376718
      ]
     ]
    ]
   }
  },
  {
   "type": "Feature",
   "id": 73,
   "properties": {
    "id": 73,
    "area_m2": 200.7
   },
   "geometry": {
    "type": "Polygon",
    "coordinates": [
     [
      [
       133.554444,
       34.374732
      ],
      [
       133.554444,
       34.374533
      ],
      [
       133.554543,
       34.374533
      ],
      [
       133.554543,
       34.374732
      ],
      [
       133.554444,
       34.374732
      ]
     ]
    ]
   }
  },
  {
   "type": "Feature",
   "id": 74,
   "properties": {
    "id": 74,
    "area_m2": 200.7
   },
   "geometry": {
    "type": "Polygon",
    "coordinates": [
     [
      [
       133.518388,
       34.399762
      ],
      [
       133.518388,
       34.399662
      ],
      [
       133.518587,
       34.399662
      ],
      [
       133.518587,
       34.399762
      ],
      [
       133.518388,
       34.399762
      ]
     ]
    ]
   }
  },
  {
   "type": "Feature",
   "id": 75,
   "properties": {
    "id": 75,
    "area_m2": 200.7
   },
   "geometry": {
    "type": "Polygon",
    "coordinates": [
     [
      [
       133.538253,
       34.38963
      ],
      [
       133.538253,
       34.389531
      ],
      [
       133.538452,
       34.389531
      ],
      [
       133.538452,
       34.38963
      ],
      [
       133.538253,
       34.38963
      ]
     ]
    ]
   }
  },
  {
   "type": "Feature",
   "id": 76,
   "properties": {
    "id": 76,
    "area_m2": 200.7
   },
   "geometry": {
    "type": "Polygon",
    "coordinates": [
     [
      [
       133.53875,
       34.388538
      ],
      [
       133.53875,
       34.388439
      ],
      [
       133.538949,
       34.388439
      ],
      [
       133.538949,
       34.388538
      ],
      [
       133.53875,
       34.388538
      ]
     ]
    ]
   }
  },
  {
   "type": "Feature",
   "id": 77,
   "properties": {
    "id": 77,
    "area_m2": 200.7
   },
   "geometry": {
    "type": "Polygon",
    "coordinates": [
     [
      [
       133.542425,
       34.377314
      ],
      [
       133.542425,
       34.377215
      ],
      [
       133.542624,
       34.377215
      ],
      [
       133.542624,
       34.377314
      ],
      [
       133.542425,
       34.377314
      ]
     ]
    ]
   }
  },
  {
   "type": "Feature",
   "id": 78,
   "properties": {
    "id": 78,
    "area_m2": 200.7
   },
   "geometry": {
    "type": "Polygon",
    "coordinates": [
     [
      [
       133.542326,
       34.376917
      ],
      [
       133.542326,
       34.376817
      ],
      [
       133.542524,
       34.376817
      ],
      [
       133.542524,
       34.376917
      ],
      [
       133.542326,
       34.376917
      ]
     ]
    ]
   }
  },
  {
   "type": "Feature",
   "id": 79,
   "properties": {
    "id": 79,
    "area_m2": 200.7
   },
   "geometry": {
    "type": "Polygon",
    "coordinates": [
     [
      [
       133.518885,
       34.398669
      ],
      [
       133.518885,
       34.39857
      ],
      [
       133.519084,
       34.39857
      ],
      [
       133.519084,
       34.398669
      ],
      [
       133.518885,
       34.398669
      ]
     ]
    ]
   }
  },
  {
   "type": "Feature",
   "id": 80,
   "properties": {
    "id": 80,
    "area_m2": 200.7
   },
   "geometry": {
    "type": "Polygon",
    "coordinates": [
     [
      [
       133.552358,
       34.394199
      ],
      [
       133.552358,
       34.3941
      ],
      [
       133.552556,
       34.3941
      ],
      [
       133.552556,
       34.394199
      ],
      [
       133.552358,
       34.394199
      ]
     ]
    ]
   }
  },
  {
   "type": "Feature",
   "id": 81,
   "properties": {
    "id": 81,
    "area_m2": 200.7
   },
   "geometry": {
    "type": "Polygon",
    "coordinates": [
     [
      [
       133.538452,
       34.393008
      ],
      [
       133.538452,
       34.392908
      ],
      [
       133.538651,
       34.392908
      ],
      [
       133.538651,
       34.393008
      ],
      [
       133.538452,
       34.393008
      ]
     ]
    ]
   }
  },
  {
   "type": "Feature",
   "id": 82,
   "properties": {
    "id": 82,
    "area_m2": 200.7
   },
   "geometry": {
    "type": "Polygon",
    "coordinates": [
     [
      [
       133.537558,
       34.392114
      ],
      [
       133.537558,
       34.392014
      ],
      [
       133.537757,
       34.392014
      ],
      [
       133.537757,
       34.392114
      ],
      [
       133.537558,
       34.392114
      ]
     ]
    ]
   }
  },
  {
   "type": "Feature",
   "id": 83,
   "properties": {
    "id": 83,
    "area_m2": 200.7
   },
   "geometry": {
    "type": "Polygon",
    "coordinates": [
     [
      [
       133.537062,
       34.391816
      ],
      [
       133.537062,
       34.391716
      ],
      [
       133.53726,
       34.391716
      ],
      [
       133.53726,
       34.391816
      ],
      [
       133.537062,
       34.391816
      ]
     ]
    ]
   }
  },
  {
   "type": "Feature",
   "id": 84,
   "properties": {
    "id": 84,
    "area_m2": 200.7
   },
   "geometry": {
    "type": "Polygon",
    "coordinates": [
     [
      [
       133.531003,
       34.390127
      ],
      [
       133.531003,
       34.390028
      ],
      [
       133.531201,
       34.390028
      ],
      [
       133.531201,
       34.390127
      ],
      [
       133.531003,
       34.390127
      ]
     ]
    ]
   }
  },
  {
   "type": "Feature",
   "id": 85,
   "properties": {
    "id": 85,
    "area_m2": 200.7
   },
   "geometry": {
    "type": "Polygon",
    "coordinates": [
     [
      [
       133.532592,
       34.389531
      ],
      [
       133.532592,
       34.389432
      ],
      [
       133.532791,
       34.389432
      ],
      [
       133.532791,
       34.389531
      ],
      [
       133.532592,
       34.389531
      ]
     ]
    ]
   }
  },
  {
   "type": "Feature",
   "id": 86,
   "properties": {
    "id": 86,
    "area_m2": 200.7
   },
   "geometry": {
    "type": "Polygon",
    "coordinates": [
     [
      [
       133.52852,
       34.388637
      ],
      [
       133.52852,
       34.388538
      ],
      [
       133.528718,
       34.388538
      ],
      [
       133.528718,
       34.388637
      ],
      [
       133.52852,
       34.388637
      ]
     ]
    ]
   }
  },
  {
   "type": "Feature",
   "id": 87,
   "properties": {
    "id": 87,
    "area_m2": 200.7
   },
   "geometry": {
    "type": "Polygon",
    "coordinates": [
     [
      [
       133.525242,
       34.38675
      ],
      [
       133.525242,
       34.386651
      ],
      [
       133.52544,
       34.386651
      ],
      [
       133.52544,
       34.38675
      ],
      [
       133.525242,
       34.38675
      ]
     ]
    ]
   }
  },
  {
   "type": "Feature",
   "id": 88,
   "properties": {
    "id": 88,
    "area_m2": 200.7
   },
   "geometry": {
    "type": "Polygon",
    "coordinates": [
     [
      [
       133.525341,
       34.386452
      ],
      [
       133.525341,
       34.386353
      ],
      [
       133.52554,
       34.386353
      ],
      [
       133.52554,
       34.386452
      ],
      [
       133.525341,
       34.386452
      ]
     ]
    ]
   }
  },
  {
   "type": "Feature",
   "id": 89,
   "properties": {
    "id": 89,
    "area_m2": 200.7
   },
   "geometry": {
    "type": "Polygon",
    "coordinates": [
     [
      [
       133.543617,
       34.385161
      ],
      [
       133.543617,
       34.385061
      ],
      [
       133.543816,
       34.385061
      ],
      [
       133.543816,
       34.385161
      ],
      [
       133.543617,
       34.385161
      ]
     ]
    ]
   }
  },
  {
   "type": "Feature",
   "id": 90,
   "properties": {
    "id": 90,
    "area_m2": 200.7
   },
   "geometry": {
    "type": "Polygon",
    "coordinates": [
     [
      [
       133.542524,
       34.375129
      ],
      [
       133.542524,
       34.37503
      ],
      [
       133.542723,
       34.37503
      ],
      [
       133.542723,
       34.375129
      ],
      [
       133.542524,
       34.375129
      ]
     ]
    ]
   }
  },
  {
   "type": "Feature",
   "id": 91,
   "properties": {
    "id": 91,
    "area_m2": 200.7
   },
   "geometry": {
    "type": "Polygon",
    "coordinates": [
     [
      [
       133.548583,
       34.396385
      ],
      [
       133.548583,
       34.396186
      ],
      [
       133.548683,
       34.396186
      ],
      [
       133.548683,
       34.396385
      ],
      [
       133.548583,
       34.396385
      ]
     ]
    ]
   }
  },
  {
   "type": "Feature",
   "id": 92,
   "properties": {
    "id": 92,
    "area_m2": 200.7
   },
   "geometry": {
    "type": "Polygon",
    "coordinates": [
     [
      [
       133.544014,
       34.381585
      ],
      [
       133.544014,
       34.381386
      ],
      [
       133.544114,
       34.381386
      ],
      [
       133.544114,
       34.381585
      ],
      [
       133.544014,
       34.381585
      ]
     ]
    ]
   }
  },
  {
   "type": "Feature",
   "id": 93,
   "properties": {
    "id": 93,
    "area_m2": 200.7
   },
   "geometry": {
    "type": "Polygon",
    "coordinates": [
     [
      [
       133.519878,
       34.396186
      ],
      [
       133.519878,
       34.395987
      ],
      [
       133.519978,
       34.395987
      ],
      [
       133.519978,
       34.396186
      ],
      [
       133.519878,
       34.396186
      ]
     ]
    ]
   }
  },
  {
   "type": "Feature",
   "id": 94,
   "properties": {
    "id": 94,
    "area_m2": 100.3
   },
   "geometry": {
    "type": "Polygon",
    "coordinates": [
     [
      [
       133.535075,
       34.392014
      ],
      [
       133.535075,
       34.391915
      ],
      [
       133.535174,
       34.391915
      ],
      [
       133.535174,
       34.392014
      ],
      [
       133.535075,
       34.392014
      ]
     ]
    ]
   }
  },
  {
   "type": "Feature",
   "id": 95,
   "properties": {
    "id": 95,
    "area_m2": 100.3
   },
   "geometry": {
    "type": "Polygon",
    "coordinates": [
     [
      [
       133.532691,
       34.391617
      ],
      [
       133.532691,
       34.391518
      ],
      [
       133.532791,
       34.391518
      ],
      [
       133.532791,
       34.391617
      ],
      [
       133.532691,
       34.391617
      ]
     ]
    ]
   }
  },
  {
   "type": "Feature",
   "id": 96,
   "properties": {
    "id": 96,
    "area_m2": 100.3
   },
   "geometry": {
    "type": "Polygon",
    "coordinates": [
     [
      [
       133.532791,
       34.38963
      ],
      [
       133.532791,
       34.389531
      ],
      [
       133.53289,
       34.389531
      ],
      [
       133.53289,
       34.38963
      ],
      [
       133.532791,
       34.38963
      ]
     ]
    ]
   }
  },
  {
   "type": "Feature",
   "id": 97,
   "properties": {
    "id": 97,
    "area_m2": 100.3
   },
   "geometry": {
    "type": "Polygon",
    "coordinates": [
     [
      [
       133.520176,
       34.387743
      ],
      [
       133.520176,
       34.387644
      ],
      [
       133.520275,
       34.387644
      ],
      [
       133.520275,
       34.387743
      ],
      [
       133.520176,
       34.387743
      ]
     ]
    ]
   }
  },
  {
   "type": "Feature",
   "id": 98,
   "properties": {
    "id": 98,
    "area_m2": 100.3
   },
   "geometry": {
    "type": "Polygon",
    "coordinates": [
     [
      [
       133.527526,
       34.385459
      ],
      [
       133.527526,
       34.385359
      ],
      [
       133.527626,
       34.385359
      ],
      [
       133.527626,
       34.385459
      ],
      [
       133.527526,
       34.385459
      ]
     ]
    ]
   }
  },
  {
   "type": "Feature",
   "id": 99,
   "properties": {
    "id": 99,
    "area_m2": 100.3
   },
   "geometry": {
    "type": "Polygon",
    "coordinates": [
     [
      [
       133.527924,
       34.381188
      ],
      [
       133.527924,
       34.381088
      ],
      [
       133.528023,
       34.381088
      ],
      [
       133.528023,
       34.381188
      ],
      [
       133.527924,
       34.381188
      ]
     ]
    ]
   }
  },
  {
   "type": "Feature",
   "id": 100,
   "properties": {
    "id": 100,
    "area_m2": 100.3
   },
   "geometry": {
    "type": "Polygon",
    "coordinates": [
     [
      [
       133.550967,
       34.375725
      ],
      [
       133.550967,
       34.375625
      ],
      [
       133.551066,
       34.375625
      ],
      [
       133.551066,
       34.375725
      ],
      [
       133.550967,
       34.375725
      ]
     ]
    ]
   }
  },
  {
   "type": "Feature",
   "id": 101,
   "properties": {
    "id": 101,
    "area_m2": 100.3
   },
   "geometry": {
    "type": "Polygon",
    "coordinates": [
     [
      [
       133.549577,
       34.396087
      ],
      [
       133.549577,
       34.395987
      ],
      [
       133.549676,
       34.395987
      ],
      [
       133.549676,
       34.396087
      ],
      [
       133.549577,
       34.396087
      ]
     ]
    ]
   }
  },
  {
   "type": "Feature",
   "id": 102,
   "properties": {
    "id": 102,
    "area_m2": 100.3
   },
   "geometry": {
    "type": "Polygon",
    "coordinates": [
     [
      [
       133.538055,
       34.395292
      ],
      [
       133.538055,
       34.395193
      ],
      [
       133.538154,
       34.395193
      ],
      [
       133.538154,
       34.395292
      ],
      [
       133.538055,
       34.395292
      ]
     ]
    ]
   }
  },
  {
   "type": "Feature",
   "id": 103,
   "properties": {
    "id": 103,
    "area_m2": 100.3
   },
   "geometry": {
    "type": "Polygon",
    "coordinates": [
     [
      [
       133.538253,
       34.3941
      ],
      [
       133.538253,
       34.394001
      ],
      [
       133.538353,
       34.394001
      ],
      [
       133.538353,
       34.3941
      ],
      [
       133.538253,
       34.3941
      ]
     ]
    ]
   }
  },
  {
   "type": "Feature",
   "id": 104,
   "properties": {
    "id": 104,
    "area_m2": 100.3
   },
   "geometry": {
    "type": "Polygon",
    "coordinates": [
     [
      [
       133.550073,
       34.392114
      ],
      [
       133.550073,
       34.392014
      ],
      [
       133.550173,
       34.392014
      ],
      [
       133.550173,
       34.392114
      ],
      [
       133.550073,
       34.392114
      ]
     ]
    ]
   }
  },
  {
   "type": "Feature",
   "id": 105,
   "properties": {
    "id": 105,
    "area_m2": 100.3
   },
   "geometry": {
    "type": "Polygon",
    "coordinates": [
     [
      [
       133.531201,
       34.391915
      ],
      [
       133.531201,
       34.391816
      ],
      [
       133.531301,
       34.391816
      ],
      [
       133.531301,
       34.391915
      ],
      [
       133.531201,
       34.391915
      ]
     ]
    ]
   }
  },
  {
   "type": "Feature",
   "id": 106,
   "properties": {
    "id": 106,
    "area_m2": 100.3
   },
   "geometry": {
    "type": "Polygon",
    "coordinates": [
     [
      [
       133.5314,
       34.390723
      ],
      [
       133.5314,
       34.390624
      ],
      [
       133.531499,
       34.390624
      ],
      [
       133.531499,
       34.390723
      ],
      [
       133.5314,
       34.390723
      ]
     ]
    ]
   }
  },
  {
   "type": "Feature",
   "id": 107,
   "properties": {
    "id": 107,
    "area_m2": 100.3
   },
   "geometry": {
    "type": "Polygon",
    "coordinates": [
     [
      [
       133.521169,
       34.390624
      ],
      [
       133.521169,
       34.390524
      ],
      [
       133.521269,
       34.390524
      ],
      [
       133.521269,
       34.390624
      ],
      [
       133.521169,
       34.390624
      ]
     ]
    ]
   }
  },
  {
   "type": "Feature",
   "id": 108,
   "properties": {
    "id": 108,
    "area_m2": 100.3
   },
   "geometry": {
    "type": "Polygon",
    "coordinates": [
     [
      [
       133.538651,
       34.390624
      ],
      [
       133.538651,
       34.390524
      ],
      [
       133.53875,
       34.390524
      ],
      [
       133.53875,
       34.390624
      ],
      [
       133.538651,
       34.390624
      ]
     ]
    ]
   }
  },
  {
   "type": "Feature",
   "id": 109,
   "properties": {
    "id": 109,
    "area_m2": 100.3
   },
   "geometry": {
    "type": "Polygon",
    "coordinates": [
     [
      [
       133.535274,
       34.38973
      ],
      [
       133.535274,
       34.38963
      ],
      [
       133.535373,
       34.38963
      ],
      [
       133.535373,
       34.38973
      ],
      [
       133.535274,
       34.38973
      ]
     ]
    ]
   }
  },
  {
   "type": "Feature",
   "id": 110,
   "properties": {
    "id": 110,
    "area_m2": 100.3
   },
   "geometry": {
    "type": "Polygon",
    "coordinates": [
     [
      [
       133.532493,
       34.38824
      ],
      [
       133.532493,
       34.388141
      ],
      [
       133.532592,
       34.388141
      ],
      [
       133.532592,
       34.38824
      ],
      [
       133.532493,
       34.38824
      ]
     ]
    ]
   }
  },
  {
   "type": "Feature",
   "id": 111,
   "properties": {
    "id": 111,
    "area_m2": 100.3
   },
   "geometry": {
    "type": "Polygon",
    "coordinates": [
     [
      [
       133.528917,
       34.387843
      ],
      [
       133.528917,
       34.387743
      ],
      [
       133.529016,
       34.387743
      ],
      [
       133.529016,
       34.387843
      ],
      [
       133.528917,
       34.387843
      ]
     ]
    ]
   }
  },
  {
   "type": "Feature",
   "id": 112,
   "properties": {
    "id": 112,
    "area_m2": 100.3
   },
   "geometry": {
    "type": "Polygon",
    "coordinates": [
     [
      [
       133.541432,
       34.38675
      ],
      [
       133.541432,
       34.386651
      ],
      [
       133.541531,
       34.386651
      ],
      [
       133.541531,
       34.38675
      ],
      [
       133.541432,
       34.38675
      ]
     ]
    ]
   }
  },
  {
   "type": "Feature",
   "id": 113,
   "properties": {
    "id": 113,
    "area_m2": 100.3
   },
   "geometry": {
    "type": "Polygon",
    "coordinates": [
     [
      [
       133.527725,
       34.386353
      ],
      [
       133.527725,
       34.386253
      ],
      [
       133.527824,
       34.386253
      ],
      [
       133.527824,
       34.386353
      ],
      [
       133.527725,
       34.386353
      ]
     ]
    ]
   }
  },
  {
   "type": "Feature",
   "id": 114,
   "properties": {
    "id": 114,
    "area_m2": 100.3
   },
   "geometry": {
    "type": "Polygon",
    "coordinates": [
     [
      [
       133.526434,
       34.384763
      ],
      [
       133.526434,
       34.384664
      ],
      [
       133.526533,
       34.384664
      ],
      [
       133.526533,
       34.384763
      ],
      [
       133.526434,
       34.384763
      ]
     ]
    ]
   }
  },
  {
   "type": "Feature",
   "id": 115,
   "properties": {
    "id": 115,
    "area_m2": 100.3
   },
   "geometry": {
    "type": "Polygon",
    "coordinates": [
     [
      [
       133.526434,
       34.384366
      ],
      [
       133.526434,
       34.384267
      ],
      [
       133.526533,
       34.384267
      ],
      [
       133.526533,
       34.384366
      ],
      [
       133.526434,
       34.384366
      ]
     ]
    ]
   }
  },
  {
   "type": "Feature",
   "id": 116,
   "properties": {
    "id": 116,
    "area_m2": 100.3
   },
   "geometry": {
    "type": "Polygon",
    "coordinates": [
     [
      [
       133.52703,
       34.384068
      ],
      [
       133.52703,
       34.383969
      ],
      [
       133.527129,
       34.383969
      ],
      [
       133.527129,
       34.384068
      ],
      [
       133.52703,
       34.384068
      ]
     ]
    ]
   }
  },
  {
   "type": "Feature",
   "id": 117,
   "properties": {
    "id": 117,
    "area_m2": 100.3
   },
   "geometry": {
    "type": "Polygon",
    "coordinates": [
     [
      [
       133.542127,
       34.375923
      ],
      [
       133.542127,
       34.375824
      ],
      [
       133.542226,
       34.375824
      ],
      [
       133.542226,
       34.375923
      ],
      [
       133.542127,
       34.375923
      ]
     ]
    ]
   }
  },
  {
   "type": "Feature",
   "id": 118,
   "properties": {
    "id": 118,
    "area_m2": 100.3
   },
   "geometry": {
    "type": "Polygon",
    "coordinates": [
     [
      [
       133.542326,
       34.375625
      ],
      [
       133.542326,
       34.375526
      ],
      [
       133.542425,
       34.375526
      ],
      [
       133.542425,
       34.375625
      ],
      [
       133.542326,
       34.375625
      ]
     ]
    ]
   }
  },
  {
   "type": "Feature",
   "id": 119,
   "properties": {
    "id": 119,
    "area_m2": 100.3
   },
   "geometry": {
    "type": "Polygon",
    "coordinates": [
     [
      [
       133.541432,
       34.375228
      ],
      [
       133.541432,
       34.375129
      ],
      [
       133.541531,
       34.375129
      ],
      [
       133.541531,
       34.375228
      ],
      [
       133.541432,
       34.375228
      ]
     ]
    ]
   }
  },
  {
   "type": "Feature",
   "id": 120,
   "properties": {
    "id": 120,
    "area_m2": 100.3
   },
   "geometry": {
    "type": "Polygon",
    "coordinates": [
     [
      [
       133.537856,
       34.398967
      ],
      [
       133.537856,
       34.398868
      ],
      [
       133.537955,
       34.398868
      ],
      [
       133.537955,
       34.398967
      ],
      [
       133.537856,
       34.398967
      ]
     ]
    ]
   }
  },
  {
   "type": "Feature",
   "id": 121,
   "properties": {
    "id": 121,
    "area_m2": 100.3
   },
   "geometry": {
    "type": "Polygon",
    "coordinates": [
     [
      [
       133.533585,
       34.392412
      ],
      [
       133.533585,
       34.392312
      ],
      [
       133.533684,
       34.392312
      ],
      [
       133.533684,
       34.392412
      ],
      [
       133.533585,
       34.392412
      ]
     ]
    ]
   }
  },
  {
   "type": "Feature",
   "id": 122,
   "properties": {
    "id": 122,
    "area_m2": 100.3
   },
   "geometry": {
    "type": "Polygon",
    "coordinates": [
     [
      [
       133.533089,
       34.392014
      ],
      [
       133.533089,
       34.391915
      ],
      [
       133.533188,
       34.391915
      ],
      [
       133.533188,
       34.392014
      ],
      [
       133.533089,
       34.392014
      ]
     ]
    ]
   }
  },
  {
   "type": "Feature",
   "id": 123,
   "properties": {
    "id": 123,
    "area_m2": 100.3
   },
   "geometry": {
    "type": "Polygon",
    "coordinates": [
     [
      [
       133.531003,
       34.388141
      ],
      [
       133.531003,
       34.388041
      ],
      [
       133.531102,
       34.388041
      ],
      [
       133.531102,
       34.388141
      ],
      [
       133.531003,
       34.388141
      ]
     ]
    ]
   }
  },
  {
   "type": "Feature",
   "id": 124,
   "properties": {
    "id": 124,
    "area_m2": 100.3
   },
   "geometry": {
    "type": "Polygon",
    "coordinates": [
     [
      [
       133.530109,
       34.387743
      ],
      [
       133.530109,
       34.387644
      ],
      [
       133.530208,
       34.387644
      ],
      [
       133.530208,
       34.387743
      ],
      [
       133.530109,
       34.387743
      ]
     ]
    ]
   }
  },
  {
   "type": "Feature",
   "id": 125,
   "properties": {
    "id": 125,
    "area_m2": 100.3
   },
   "geometry": {
    "type": "Polygon",
    "coordinates": [
     [
      [
       133.526036,
       34.386551
      ],
      [
       133.526036,
       34.386452
      ],
      [
       133.526136,
       34.386452
      ],
      [
       133.526136,
       34.386551
      ],
      [
       133.526036,
       34.386551
      ]
     ]
    ]
   }
  },
  {
   "type": "Feature",
   "id": 126,
   "properties": {
    "id": 126,
    "area_m2": 100.3
   },
   "geometry": {
    "type": "Polygon",
    "coordinates": [
     [
      [
       133.545206,
       34.381883
      ],
      [
       133.545206,
       34.381784
      ],
      [
       133.545306,
       34.381784
      ],
      [
       133.545306,
       34.381883
      ],
      [
       133.545206,
       34.381883
      ]
     ]
    ]
   }
  },
  {
   "type": "Feature",
   "id": 127,
   "properties": {
    "id": 127,
    "area_m2": 100.3
   },
   "geometry": {
    "type": "Polygon",
    "coordinates": [
     [
      [
       133.546795,
       34.376519
      ],
      [
       133.546795,
       34.37642
      ],
      [
       133.546895,
       34.37642
      ],
      [
       133.546895,
       34.376519
      ],
      [
       133.546795,
       34.376519
      ]
     ]
    ]
   }
  },
  {
   "type": "Feature",
   "id": 128,
   "properties": {
    "id": 128,
    "area_m2": 100.3
   },
   "geometry": {
    "type": "Polygon",
    "coordinates": [
     [
      [
       133.547689,
       34.375328
      ],
      [
       133.547689,
       34.375228
      ],
      [
       133.547789,
       34.375228
      ],
      [
       133.547789,
       34.375328
      ],
      [
       133.547689,
       34.375328
      ]
     ]
    ]
   }
  },
  {
   "type": "Feature",
   "id": 129,
   "properties": {
    "id": 129,
    "area_m2": 100.3
   },
   "geometry": {
    "type": "Polygon",
    "coordinates": [
     [
      [
       133.518488,
       34.399066
      ],
      [
       133.518488,
       34.398967
      ],
      [
       133.518587,
       34.398967
      ],
      [
       133.518587,
       34.399066
      ],
      [
       133.518488,
       34.399066
      ]
     ]
    ]
   }
  },
  {
   "type": "Feature",
   "id": 130,
   "properties": {
    "id": 130,
    "area_m2": 100.3
   },
   "geometry": {
    "type": "Polygon",
    "coordinates": [
     [
      [
       133.518786,
       34.398768
      ],
      [
       133.518786,
       34.398669
      ],
      [
       133.518885,
       34.398669
      ],
      [
       133.518885,
       34.398768
      ],
      [
       133.518786,
       34.398768
      ]
     ]
    ]
   }
  },
  {
   "type": "Feature",
   "id": 131,
   "properties": {
    "id": 131,
    "area_m2": 100.3
   },
   "geometry": {
    "type": "Polygon",
    "coordinates": [
     [
      [
       133.537161,
       34.393703
      ],
      [
       133.537161,
       34.393603
      ],
      [
       133.53726,
       34.393603
      ],
      [
       133.53726,
       34.393703
      ],
      [
       133.537161,
       34.393703
      ]
     ]
    ]
   }
  },
  {
   "type": "Feature",
   "id": 132,
   "properties": {
    "id": 132,
    "area_m2": 100.3
   },
   "geometry": {
    "type": "Polygon",
    "coordinates": [
     [
      [
       133.533585,
       34.393603
      ],
      [
       133.533585,
       34.393504
      ],
      [
       133.533684,
       34.393504
      ],
      [
       133.533684,
       34.393603
      ],
      [
       133.533585,
       34.393603
      ]
     ]
    ]
   }
  },
  {
   "type": "Feature",
   "id": 133,
   "properties": {
    "id": 133,
    "area_m2": 100.3
   },
   "geometry": {
    "type": "Polygon",
    "coordinates": [
     [
      [
       133.54908,
       34.39271
      ],
      [
       133.54908,
       34.39261
      ],
      [
       133.549179,
       34.39261
      ],
      [
       133.549179,
       34.39271
      ],
      [
       133.54908,
       34.39271
      ]
     ]
    ]
   }
  },
  {
   "type": "Feature",
   "id": 134,
   "properties": {
    "id": 134,
    "area_m2": 100.3
   },
   "geometry": {
    "type": "Polygon",
    "coordinates": [
     [
      [
       133.522361,
       34.390922
      ],
      [
       133.522361,
       34.390822
      ],
      [
       133.522461,
       34.390822
      ],
      [
       133.522461,
       34.390922
      ],
      [
       133.522361,
       34.390922
      ]
     ]
    ]
   }
  },
  {
   "type": "Feature",
   "id": 135,
   "properties": {
    "id": 135,
    "area_m2": 100.3
   },
   "geometry": {
    "type": "Polygon",
    "coordinates": [
     [
      [
       133.520077,
       34.38973
      ],
      [
       133.520077,
       34.38963
      ],
      [
       133.520176,
       34.38963
      ],
      [
       133.520176,
       34.38973
      ],
      [
       133.520077,
       34.38973
      ]
     ]
    ]
   }
  },
  {
   "type": "Feature",
   "id": 136,
   "properties": {
    "id": 136,
    "area_m2": 100.3
   },
   "geometry": {
    "type": "Polygon",
    "coordinates": [
     [
      [
       133.53289,
       34.38973
      ],
      [
       133.53289,
       34.38963
      ],
      [
       133.532989,
       34.38963
      ],
      [
       133.532989,
       34.38973
      ],
      [
       133.53289,
       34.38973
      ]
     ]
    ]
   }
  },
  {
   "type": "Feature",
   "id": 137,
   "properties": {
    "id": 137,
    "area_m2": 100.3
   },
   "geometry": {
    "type": "Polygon",
    "coordinates": [
     [
      [
       133.520077,
       34.389134
      ],
      [
       133.520077,
       34.389034
      ],
      [
       133.520176,
       34.389034
      ],
      [
       133.520176,
       34.389134
      ],
      [
       133.520077,
       34.389134
      ]
     ]
    ]
   }
  },
  {
   "type": "Feature",
   "id": 138,
   "properties": {
    "id": 138,
    "area_m2": 100.3
   },
   "geometry": {
    "type": "Polygon",
    "coordinates": [
     [
      [
       133.531003,
       34.388737
      ],
      [
       133.531003,
       34.388637
      ],
      [
       133.531102,
       34.388637
      ],
      [
       133.531102,
       34.388737
      ],
      [
       133.531003,
       34.388737
      ]
     ]
    ]
   }
  },
  {
   "type": "Feature",
   "id": 139,
   "properties": {
    "id": 139,
    "area_m2": 100.3
   },
   "geometry": {
    "type": "Polygon",
    "coordinates": [
     [
      [
       133.530605,
       34.388637
      ],
      [
       133.530605,
       34.388538
      ],
      [
       133.530705,
       34.388538
      ],
      [
       133.530705,
       34.388637
      ],
      [
       133.530605,
       34.388637
      ]
     ]
    ]
   }
  },
  {
   "type": "Feature",
   "id": 140,
   "properties": {
    "id": 140,
    "area_m2": 100.3
   },
   "geometry": {
    "type": "Polygon",
    "coordinates": [
     [
      [
       133.528718,
       34.387644
      ],
      [
       133.528718,
       34.387545
      ],
      [
       133.528818,
       34.387545
      ],
      [
       133.528818,
       34.387644
      ],
      [
       133.528718,
       34.387644
      ]
     ]
    ]
   }
  },
  {
   "type": "Feature",
   "id": 141,
   "properties": {
    "id": 141,
    "area_m2": 100.3
   },
   "geometry": {
    "type": "Polygon",
    "coordinates": [
     [
      [
       133.527129,
       34.386651
      ],
      [
       133.527129,
       34.386551
      ],
      [
       133.527228,
       34.386551
      ],
      [
       133.527228,
       34.386651
      ],
      [
       133.527129,
       34.386651
      ]
     ]
    ]
   }
  },
  {
   "type": "Feature",
   "id": 142,
   "properties": {
    "id": 142,
    "area_m2": 100.3
   },
   "geometry": {
    "type": "Polygon",
    "coordinates": [
     [
      [
       133.527129,
       34.384962
      ],
      [
       133.527129,
       34.384863
      ],
      [
       133.527228,
       34.384863
      ],
      [
       133.527228,
       34.384962
      ],
      [
       133.527129,
       34.384962
      ]
     ]
    ]
   }
  },
  {
   "type": "Feature",
   "id": 143,
   "properties": {
    "id": 143,
    "area_m2": 100.3
   },
   "geometry": {
    "type": "Polygon",
    "coordinates": [
     [
      [
       133.526533,
       34.384863
      ],
      [
       133.526533,
       34.384763
      ],
      [
       133.526632,
       34.384763
      ],
      [
       133.526632,
       34.384863
      ],
      [
       133.526533,
       34.384863
      ]
     ]
    ]
   }
  },
  {
   "type": "Feature",
   "id": 144,
   "properties": {
    "id": 144,
    "area_m2": 100.3
   },
   "geometry": {
    "type": "Polygon",
    "coordinates": [
     [
      [
       133.551066,
       34.375824
      ],
      [
       133.551066,
       34.375725
      ],
      [
       133.551166,
       34.375725
      ],
      [
       133.551166,
       34.375824
      ],
      [
       133.551066,
       34.375824
      ]
     ]
    ]
   }
  },
  {
   "type": "Feature",
   "id": 145,
   "properties": {
    "id": 145,
    "area_m2": 100.3
   },
   "geometry": {
    "type": "Polygon",
    "coordinates": [
     [
      [
       133.558119,
       34.370759
      ],
      [
       133.558119,
       34.370659
      ],
      [
       133.558218,
       34.370659
      ],
      [
       133.558218,
       34.370759
      ],
      [
       133.558119,
       34.370759
      ]
     ]
    ]
   }
  }
 ]
}
